NORAD_CAT_ID,OBJECT_NAME,OBJECT_TYPE,EPOCH,MEAN_MOTION,ECCENTRICITY,INCLINATION,RA_OF_ASC_NODE,ARG_OF_PERICENTER,MEAN_ANOMALY,BSTAR,MEAN_MOTION_DOT,MEAN_MOTION_DDOT,TLE_LINE0,TLE_LINE1,TLE_LINE2,SEMIMAJOR_AXIS,PERIOD,APOGEE,PERIGEE,DECAYED
49430.0,STARLINK-3138,PAYLOAD,2021-12-17 05:19:23,15.67864468,1.86e-05,53.2192,326.404,39.9888,320.1144,-0.0027714,-0.00300645,0.0,0 STARLINK-3138,1 49430U 21104Y   21351.22180542 -.00300645  00000-0 -27714-2 0  9997,2 49430  53.2192 326.4040 0000186  39.9888 320.1144 15.67864468  6571,6743.15,91.845,365.141,364.89,0.0
49430.0,STARLINK-3138,PAYLOAD,2021-12-17 14:00:01,15.66767045,0.0001178,53.2174,324.6464,81.1115,159.5893,-0.0066789,-0.00662731,0.0,0 STARLINK-3138,1 49430U 21104Y   21351.58335648 -.00662731  00000-0 -66789-2 0  9997,2 49430  53.2174 324.6464 0001178  81.1115 159.5893 15.66767045  6639,6746.299,91.909,368.958,367.369,0.0
49430.0,STARLINK-3138,PAYLOAD,2021-12-17 22:00:00,15.66297768,0.0001146,53.2177,323.0136,68.907,252.6405,-0.0067437,-0.0065698,0.0,0 STARLINK-3138,1 49430U 21104Y   21351.91667824 -.00656980  00000-0 -67437-2 0  9998,2 49430  53.2177 323.0136 0001146  68.9070 252.6405 15.66297768  3719,6747.646,91.937,370.284,368.73800000000006,0.0
49430.0,STARLINK-3138,PAYLOAD,2021-12-18 14:00:01,15.65366531,0.0001162,53.2173,319.7547,69.1769,52.5093,-0.0070444,-0.00660651,0.0,0 STARLINK-3138,1 49430U 21104Y   21352.58334491 -.00660651  00000-0 -70444-2 0  9995,2 49430  53.2173 319.7547 0001162  69.1769  52.5093 15.65366531  3713,6750.321999999999,91.991,372.971,371.402,0.0
49430.0,STARLINK-3138,PAYLOAD,2021-12-18 21:08:40,15.655208300000002,7.13e-05,53.2194,318.2837,67.7831,292.3262,-0.0031575,-0.00311081,0.0,0 STARLINK-3138,1 49430U 21104Y   21352.88102721 -.00311081  00000-0 -31575-2 0  9999,2 49430  53.2194 318.2837 0000713  67.7831 292.3262 15.65520830  5760,6749.878000000002,91.982,372.225,371.262,0.0
49430.0,STARLINK-3138,PAYLOAD,2021-12-18 22:00:00,15.6489921,0.000137,53.2175,318.1256,63.4423,137.47299999999998,-0.0071454,-0.00657928,0.0,0 STARLINK-3138,1 49430U 21104Y   21352.91667824 -.00657928  00000-0 -71454-2 0  9996,2 49430  53.2175 318.1256 0001370  63.4423 137.4730 15.64899210  6842,6751.666,92.019,374.456,372.606,0.0
49430.0,STARLINK-3138,PAYLOAD,2021-12-19 14:00:01,15.63966893,0.0001075,53.2174,314.8734,75.1185,282.5723,-0.0074483999999999,-0.00660515,0.0,0 STARLINK-3138,1 49430U 21104Y   21353.58334491 -.00660515  00000-0 -74484-2 0  9993,2 49430  53.2174 314.8734 0001075  75.1185 282.5723 15.63966893  3686,6754.349,92.074,376.94,375.48800000000006,0.0
49430.0,STARLINK-3138,PAYLOAD,2021-12-19 22:00:00,15.63407385,0.0001115,53.2174,313.2457,56.6659,18.6214,-0.0060554,-0.0053351,0.0,0 STARLINK-3138,1 49430U 21104Y   21353.91667824 -.00533510  00000-0 -60554-2 0  9996,2 49430  53.2174 313.2457 0001115  56.6659  18.6214 15.63407385  6992,6755.96,92.107,378.578,377.072,0.0
49430.0,STARLINK-3138,PAYLOAD,2021-12-20 06:00:00,15.62903006,0.0001428,53.2179,311.6244,72.1955,80.1,-0.0056026,-0.00486736,0.0,0 STARLINK-3138,1 49430U 21104Y   21354.25001157 -.00486736  00000-0 -56026-2 0  9991,2 49430  53.2179 311.6244 0001428  72.1955  80.1000 15.62903006  7057,6757.413000000001,92.136,380.24300000000005,378.31300000000016,0.0
49430.0,STARLINK-3138,PAYLOAD,2021-12-20 14:00:01,15.625687,0.0001236,53.2175,310.002,77.4359,151.2133,-0.0079028,-0.00662966,0.0,0 STARLINK-3138,1 49430U 21104Y   21354.58334491 -.00662966  00000-0 -79028-2 0  9995,2 49430  53.2175 310.0020 0001236  77.4359 151.2133 15.62568700  7102,6758.377,92.156,381.078,379.407,0.0
49430.0,STARLINK-3138,PAYLOAD,2021-12-20 22:00:01,15.62100358,0.0001221,53.2178,308.38,64.639,239.941,-0.0079935,-0.00658716,0.0,0 STARLINK-3138,1 49430U 21104Y   21354.91668981 -.00658716  00000-0 -79935-2 0  9991,2 49430  53.2178 308.3800 0001221  64.6390 239.9410 15.62100358  3691,6759.728,92.184,382.418,380.768,0.0
49430.0,STARLINK-3138,PAYLOAD,2021-12-21 14:00:01,15.61166625,0.0001137,53.2174,305.141,67.6247,26.9385,-0.0082855,-0.00658383,0.0,0 STARLINK-3138,1 49430U 21104Y   21355.58334491 -.00658383  00000-0 -82855-2 0  9996,2 49430  53.2174 305.1410 0001137  67.6247  26.9385 15.61166625  3681,6762.4230000000025,92.239,385.057,383.519,0.0
49430.0,STARLINK-3138,PAYLOAD,2021-12-21 22:00:00,15.60699208,0.000134,53.2176,303.5226,61.3564,107.3904,-0.0084104,-0.00656498,0.0,0 STARLINK-3138,1 49430U 21104Y   21355.91667824 -.00656498  00000-0 -84104-2 0  9996,2 49430  53.2176 303.5226 0001340  61.3564 107.3904 15.60699208  7311,6763.773,92.266,386.545,384.732,0.0
49430.0,STARLINK-3138,PAYLOAD,2021-12-22 14:00:01,15.59768428,0.0001107,53.2176,300.2901,82.2802,233.15,-0.0087832,-0.00661022,0.0,0 STARLINK-3138,1 49430U 21104Y   21356.58334491 -.00661022  00000-0 -87832-2 0  9991,2 49430  53.2176 300.2901 0001107  82.2802 233.1500 15.59768428  3688,6766.464,92.321,389.078,387.58,0.0
49430.0,STARLINK-3138,PAYLOAD,2021-12-22 20:00:01,15.5941608,0.0001214,53.2176,299.0782,73.1423,206.7174,-0.0088275,-0.00655881,0.0,0 STARLINK-3138,1 49430U 21104Y   21356.83334491 -.00655881  00000-0 -88275-2 0  9997,2 49430  53.2176 299.0782 0001214  73.1423 206.7174 15.59416080  7453,6767.483,92.342,390.17,388.526,0.0
49430.0,STARLINK-3138,PAYLOAD,2021-12-22 22:00:00,15.59196368,0.0001166,53.2178,298.6731,75.8039,312.1884,-0.0070078,-0.00524839,0.0,0 STARLINK-3138,1 49430U 21104Y   21356.91667824 -.00524839  00000-0 -70078-2 0  9995,2 49430  53.2178 298.6731 0001166  75.8039 312.1884 15.59196368  3665,6768.119000000002,92.355,390.773,389.195,0.0
49430.0,STARLINK-3138,PAYLOAD,2021-12-23 14:00:01,15.58366944,0.0001232,53.2176,295.4492,71.0158,100.2368,-0.0092101,-0.00657355,0.0,0 STARLINK-3138,1 49430U 21104Y   21357.58334491 -.00657355  00000-0 -92101-2 0  9991,2 49430  53.2176 295.4492 0001232  71.0158 100.2368 15.58366944  3689,6770.52,92.404,393.219,391.551,0.0
49430.0,STARLINK-3138,PAYLOAD,2021-12-23 22:00:00,15.57900173,0.0001302,53.2178,293.8381,68.6428,173.429,-0.0093654,-0.00656777,0.0,0 STARLINK-3138,1 49430U 21104Y   21357.91667824 -.00656777  00000-0 -93654-2 0  9998,2 49430  53.2178 293.8381 0001302  68.6428 173.4290 15.57900173  7621,6771.871999999999,92.432,394.619,392.856,0.0
49430.0,STARLINK-3138,PAYLOAD,2021-12-24 14:00:01,15.56929044,0.0001103,53.2177,290.6176,62.9649,319.0824,-0.0088655,-0.00603392,0.0,0 STARLINK-3138,1 49430U 21104Y   21358.58334491 -.00603392  00000-0 -88655-2 0  9993,2 49430  53.2177 290.6176 0001103  62.9649 319.0824 15.56929044  3677,6774.688,92.49,397.3,395.806,0.0
49430.0,STARLINK-3138,PAYLOAD,2021-12-24 22:00:00,15.56399741,0.0001162,53.2175,289.0088,88.8534,2.3721,-0.0078698,-0.00529994,0.0,0 STARLINK-3138,1 49430U 21104Y   21358.91667824 -.00529994  00000-0 -78698-2 0  9990,2 49430  53.2175 289.0088 0001162  88.8534   2.3721 15.56399741  7772,6776.224,92.521,398.876,397.301,0.0
49430.0,STARLINK-3138,PAYLOAD,2021-12-25 06:00:00,15.5602931,0.0001205,53.2174,287.406,78.9938,80.7495,-0.0099234,-0.00649291,0.0,0 STARLINK-3138,1 49430U 21104Y   21359.25001157 -.00649291  00000-0 -99234-2 0  9991,2 49430  53.2174 287.4060 0001205  78.9938  80.7495 15.56029310  7836,6777.299,92.543,399.981,398.348,0.0
49430.0,STARLINK-3138,PAYLOAD,2021-12-25 14:00:01,15.5556687,0.0001219,53.2176,285.7983,82.5449,145.2141,-0.010205,-0.00655788,0.0,0 STARLINK-3138,1 49430U 21104Y   21359.58334491 -.00655788  00000-0 -10205-1 0  9995,2 49430  53.2176 285.7983 0001219  82.5449 145.2141 15.55566870  3686,6778.642,92.571,401.334,399.681,0.0
49430.0,STARLINK-3138,PAYLOAD,2021-12-25 22:00:00,15.55101207,0.0001215,53.2177,284.1943,73.15,222.064,-0.010411,-0.00657435,0.0,0 STARLINK-3138,1 49430U 21104Y   21359.91667824 -.00657435  00000-0 -10411-1 0  9991,2 49430  53.2177 284.1943 0001215  73.1500 222.0640 15.55101207  3694,6779.995,92.598,402.684,401.037,0.0
49430.0,STARLINK-3138,PAYLOAD,2021-12-26 06:00:02,15.5463244,0.0001087,53.2175,282.5923,72.1207,290.0527,-0.010524,-0.00653468,0.0,0 STARLINK-3138,1 49430U 21104Y   21360.25002315 -.00653468  00000-0 -10524-1 0  9995,2 49430  53.2175 282.5923 0001087  72.1207 290.0527 15.54632440  7984,6781.358,92.626,403.96,402.486,0.0
49430.0,STARLINK-3138,PAYLOAD,2021-12-26 14:00:01,15.54068672,0.0001032,53.2179,280.9867,59.8915,8.6054,-0.0084857,-0.00524585,0.0,0 STARLINK-3138,1 49430U 21104Y   21360.58334491 -.00524585  00000-0 -84857-2 0  9992,2 49430  53.2179 280.9867 0001032  59.8915   8.6054 15.54068672  3664,6782.998000000001,92.66,405.56300000000016,404.163,0.0
49430.0,STARLINK-3138,PAYLOAD,2021-12-26 22:00:00,15.53701106,0.0001303,53.2177,279.3876,62.8212,71.3954,-0.010949,-0.00656745,0.0,0 STARLINK-3138,1 49430U 21104Y   21360.91667824 -.00656745  00000-0 -10949-1 0  9992,2 49430  53.2177 279.3876 0001303  62.8212  71.3954 15.53701106  3682,6784.068,92.682,406.817,405.049,0.0
49430.0,STARLINK-3138,PAYLOAD,2021-12-27 06:00:00,15.53230656,0.0001286,53.2172,277.7888,72.1669,127.2631,-0.01101,-0.00649723,0.0,0 STARLINK-3138,1 49430U 21104Y   21361.25001157 -.00649723  00000-0 -11010-1 0  9999,2 49430  53.2172 277.7888 0001286  72.1669 127.2631 15.53230656  8148,6785.438,92.71,408.175,406.43,0.0
49430.0,STARLINK-3138,PAYLOAD,2021-12-27 14:00:01,15.5276641,0.0001188,53.2175,276.1878,84.6682,179.4146,-0.011272,-0.00653685,0.0,0 STARLINK-3138,1 49430U 21104Y   21361.58334491 -.00653685  00000-0 -11272-1 0  9997,2 49430  53.2175 276.1878 0001188  84.6682 179.4146 15.52766410  3693,6786.79,92.738,409.461,407.849,0.0
49430.0,STARLINK-3138,PAYLOAD,2021-12-27 22:00:00,15.52301993,0.000118,53.2176,274.5909,71.4728,256.7004,-0.011533,-0.00657334,0.0,0 STARLINK-3138,1 49430U 21104Y   21361.91667824 -.00657334  00000-0 -11533-1 0  9998,2 49430  53.2176 274.5909 0001180  71.4728 256.7004 15.52301993  3680,6788.144,92.765,410.81,409.208,0.0
